STARLINK-34694          
1 66189U 25243N   25317.19743060  .00299249  00000+0  19707-2 0  9994
2 66189  53.1573  68.8276 0001518  39.8396 320.2735 15.74249174  2789
STARLINK-34863          
1 66190U 25243P   25317.19878287  .00295450  00000+0  19465-2 0  9997
2 66190  53.1576  68.8358 0001323  34.9152 325.1955 15.74250766  2782
STARLINK-35061          
1 66191U 25243Q   25317.19540209  .00353978  00000+0  23165-2 0  9990
2 66191  53.1577  68.8137 0001318  32.6607 327.4494 15.74234969  2783
STARLINK-34937          
1 66192U 25243R   25317.19574007  .00305458  00000+0  20115-2 0  9996
2 66192  53.1577  68.8157 0001703  31.5209 328.5913 15.74232238  2785
STARLINK-35197          
1 66193U 25243S   25317.19607906  .00285464  00000+0  18837-2 0  9994
2 66193  53.1577  68.8177 0001947  17.1045 343.0041 15.74243087  2784
STARLINK-35374          
1 66194U 25243T   25317.19641682  .00319837  00000+0  20997-2 0  9996
2 66194  53.1578  68.8201 0001405  32.6566 327.4541 15.74260924  2783
STARLINK-34813          
1 66195U 25243U   25317.19675421  .00290276  00000+0  19142-2 0  9990
2 66195  53.1575  68.8228 0001598  22.8807 337.2283 15.74244199  2780
STARLINK-35409          
1 66196U 25243V   25317.19709199  .00364072  00000+0  23787-2 0  9997
2 66196  53.1571  68.8254 0001462  38.1703 321.9420 15.74243391  2787
STARLINK-35518          
1 66197U 25243X   25317.19776894  .00293726  00000+0  19358-2 0  9990
2 66197  53.1574  68.8298 0001358  27.0732 333.0358 15.74248154  2788
STARLINK-35259          
1 66198U 25243W   25317.19100794  .00301412  00000+0  19842-2 0  9991
2 66198  53.1582  68.7820 0001378  16.1111 343.9952 15.74252055  2785
STARLINK-35509          
1 66199U 25243Y   25317.19067100  .00315899  00000+0  20752-2 0  9991
2 66199  53.1581  68.7802 0001955  23.3998 336.7110 15.74258235  2781
STARLINK-35551          
1 66200U 25243Z   25317.19134438  .00325993  00000+0  21405-2 0  9995
2 66200  53.1582  68.7845 0001032  59.4236 300.6886 15.74238958  2783
