CCSDS_OMM_VERS = 2.0
CREATION_DATE  = 
ORIGINATOR     = 

OBJECT_NAME    = STARLINK-34694
OBJECT_ID      = 2025-243N
CENTER_NAME    = EARTH
REF_FRAME      = TEME
TIME_SYSTEM    = UTC
MEAN_ELEMENT_THEORY = SGP/SGP4

EPOCH          = 2025-11-13T04:44:18.003840
MEAN_MOTION    = 15.74249174
ECCENTRICITY   = .00015188
INCLINATION    = 53.1573
RA_OF_ASC_NODE = 68.8276
ARG_OF_PERICENTER = 39.8396
MEAN_ANOMALY   = 320.2735

EPHEMERIS_TYPE = 0
CLASSIFICATION_TYPE = U
NORAD_CAT_ID   = 66189
ELEMENT_SET_NO = 999
REV_AT_EPOCH   = 278
BSTAR          = .19707061E-2
MEAN_MOTION_DOT = .299249E-2
MEAN_MOTION_DDOT = 0

CCSDS_OMM_VERS = 2.0
CREATION_DATE  = 
ORIGINATOR     = 

OBJECT_NAME    = STARLINK-34863
OBJECT_ID      = 2025-243P
CENTER_NAME    = EARTH
REF_FRAME      = TEME
TIME_SYSTEM    = UTC
MEAN_ELEMENT_THEORY = SGP/SGP4

EPOCH          = 2025-11-13T04:46:14.839968
MEAN_MOTION    = 15.74250766
ECCENTRICITY   = .00013239
INCLINATION    = 53.1576
RA_OF_ASC_NODE = 68.8358
ARG_OF_PERICENTER = 34.9152
MEAN_ANOMALY   = 325.1955

EPHEMERIS_TYPE = 0
CLASSIFICATION_TYPE = U
NORAD_CAT_ID   = 66190
ELEMENT_SET_NO = 999
REV_AT_EPOCH   = 278
BSTAR          = .19464919E-2
MEAN_MOTION_DOT = .29545E-2
MEAN_MOTION_DDOT = 0

CCSDS_OMM_VERS = 2.0
CREATION_DATE  = 
ORIGINATOR     = 

OBJECT_NAME    = STARLINK-35061
OBJECT_ID      = 2025-243Q
CENTER_NAME    = EARTH
REF_FRAME      = TEME
TIME_SYSTEM    = UTC
MEAN_ELEMENT_THEORY = SGP/SGP4

EPOCH          = 2025-11-13T04:41:22.740576
MEAN_MOTION    = 15.74234969
ECCENTRICITY   = .00013184
INCLINATION    = 53.1577
RA_OF_ASC_NODE = 68.8137
ARG_OF_PERICENTER = 32.6607
MEAN_ANOMALY   = 327.4494

EPHEMERIS_TYPE = 0
CLASSIFICATION_TYPE = U
NORAD_CAT_ID   = 66191
ELEMENT_SET_NO = 999
REV_AT_EPOCH   = 278
BSTAR          = .23165037E-2
MEAN_MOTION_DOT = .353978E-2
MEAN_MOTION_DDOT = 0

CCSDS_OMM_VERS = 2.0
CREATION_DATE  = 
ORIGINATOR     = 

OBJECT_NAME    = STARLINK-34937
OBJECT_ID      = 2025-243R
CENTER_NAME    = EARTH
REF_FRAME      = TEME
TIME_SYSTEM    = UTC
MEAN_ELEMENT_THEORY = SGP/SGP4

EPOCH          = 2025-11-13T04:41:51.942048
MEAN_MOTION    = 15.74232238
ECCENTRICITY   = .00017034
INCLINATION    = 53.1577
RA_OF_ASC_NODE = 68.8157
ARG_OF_PERICENTER = 31.5209
MEAN_ANOMALY   = 328.5913

EPHEMERIS_TYPE = 0
CLASSIFICATION_TYPE = U
NORAD_CAT_ID   = 66192
ELEMENT_SET_NO = 999
REV_AT_EPOCH   = 278
BSTAR          = .20114859E-2
MEAN_MOTION_DOT = .305458E-2
MEAN_MOTION_DDOT = 0

CCSDS_OMM_VERS = 2.0
CREATION_DATE  = 
ORIGINATOR     = 

OBJECT_NAME    = STARLINK-35197
OBJECT_ID      = 2025-243S
CENTER_NAME    = EARTH
REF_FRAME      = TEME
TIME_SYSTEM    = UTC
MEAN_ELEMENT_THEORY = SGP/SGP4

EPOCH          = 2025-11-13T04:42:21.230784
MEAN_MOTION    = 15.74243087
ECCENTRICITY   = .00019477
INCLINATION    = 53.1577
RA_OF_ASC_NODE = 68.8177
ARG_OF_PERICENTER = 17.1045
MEAN_ANOMALY   = 343.0041

EPHEMERIS_TYPE = 0
CLASSIFICATION_TYPE = U
NORAD_CAT_ID   = 66193
ELEMENT_SET_NO = 999
REV_AT_EPOCH   = 278
BSTAR          = .18837181E-2
MEAN_MOTION_DOT = .285464E-2
MEAN_MOTION_DDOT = 0

CCSDS_OMM_VERS = 2.0
CREATION_DATE  = 
ORIGINATOR     = 

OBJECT_NAME    = STARLINK-35374
OBJECT_ID      = 2025-243T
CENTER_NAME    = EARTH
REF_FRAME      = TEME
TIME_SYSTEM    = UTC
MEAN_ELEMENT_THEORY = SGP/SGP4

EPOCH          = 2025-11-13T04:42:50.413248
MEAN_MOTION    = 15.74260924
ECCENTRICITY   = .00014056
INCLINATION    = 53.1578
RA_OF_ASC_NODE = 68.8201
ARG_OF_PERICENTER = 32.6566
MEAN_ANOMALY   = 327.4541

EPHEMERIS_TYPE = 0
CLASSIFICATION_TYPE = U
NORAD_CAT_ID   = 66194
ELEMENT_SET_NO = 999
REV_AT_EPOCH   = 278
BSTAR          = .20997432E-2
MEAN_MOTION_DOT = .319837E-2
MEAN_MOTION_DDOT = 0

CCSDS_OMM_VERS = 2.0
CREATION_DATE  = 
ORIGINATOR     = 

OBJECT_NAME    = STARLINK-34813
OBJECT_ID      = 2025-243U
CENTER_NAME    = EARTH
REF_FRAME      = TEME
TIME_SYSTEM    = UTC
MEAN_ELEMENT_THEORY = SGP/SGP4

EPOCH          = 2025-11-13T04:43:19.563744
MEAN_MOTION    = 15.74244199
ECCENTRICITY   = .00015982
INCLINATION    = 53.1575
RA_OF_ASC_NODE = 68.8228
ARG_OF_PERICENTER = 22.8807
MEAN_ANOMALY   = 337.2283

EPHEMERIS_TYPE = 0
CLASSIFICATION_TYPE = U
NORAD_CAT_ID   = 66195
ELEMENT_SET_NO = 999
REV_AT_EPOCH   = 278
BSTAR          = .19142114E-2
MEAN_MOTION_DOT = .290276E-2
MEAN_MOTION_DDOT = 0

CCSDS_OMM_VERS = 2.0
CREATION_DATE  = 
ORIGINATOR     = 

OBJECT_NAME    = STARLINK-35409
OBJECT_ID      = 2025-243V
CENTER_NAME    = EARTH
REF_FRAME      = TEME
TIME_SYSTEM    = UTC
MEAN_ELEMENT_THEORY = SGP/SGP4

EPOCH          = 2025-11-13T04:43:48.747936
MEAN_MOTION    = 15.74243391
ECCENTRICITY   = .00014629
INCLINATION    = 53.1571
RA_OF_ASC_NODE = 68.8254
ARG_OF_PERICENTER = 38.1703
MEAN_ANOMALY   = 321.9420

EPHEMERIS_TYPE = 0
CLASSIFICATION_TYPE = U
NORAD_CAT_ID   = 66196
ELEMENT_SET_NO = 999
REV_AT_EPOCH   = 278
BSTAR          = .23787051E-2
MEAN_MOTION_DOT = .364072E-2
MEAN_MOTION_DDOT = 0

CCSDS_OMM_VERS = 2.0
CREATION_DATE  = 
ORIGINATOR     = 

OBJECT_NAME    = STARLINK-35518
OBJECT_ID      = 2025-243X
CENTER_NAME    = EARTH
REF_FRAME      = TEME
TIME_SYSTEM    = UTC
MEAN_ELEMENT_THEORY = SGP/SGP4

EPOCH          = 2025-11-13T04:44:47.236416
MEAN_MOTION    = 15.74248154
ECCENTRICITY   = .00013587
INCLINATION    = 53.1574
RA_OF_ASC_NODE = 68.8298
ARG_OF_PERICENTER = 27.0732
MEAN_ANOMALY   = 333.0358

EPHEMERIS_TYPE = 0
CLASSIFICATION_TYPE = U
NORAD_CAT_ID   = 66197
ELEMENT_SET_NO = 999
REV_AT_EPOCH   = 278
BSTAR          = .19357739E-2
MEAN_MOTION_DOT = .293726E-2
MEAN_MOTION_DDOT = 0

CCSDS_OMM_VERS = 2.0
CREATION_DATE  = 
ORIGINATOR     = 

OBJECT_NAME    = STARLINK-35259
OBJECT_ID      = 2025-243W
CENTER_NAME    = EARTH
REF_FRAME      = TEME
TIME_SYSTEM    = UTC
MEAN_ELEMENT_THEORY = SGP/SGP4

EPOCH          = 2025-11-13T04:35:03.086016
MEAN_MOTION    = 15.74252055
ECCENTRICITY   = .00013784
INCLINATION    = 53.1582
RA_OF_ASC_NODE = 68.7820
ARG_OF_PERICENTER = 16.1111
MEAN_ANOMALY   = 343.9952

EPHEMERIS_TYPE = 0
CLASSIFICATION_TYPE = U
NORAD_CAT_ID   = 66198
ELEMENT_SET_NO = 999
REV_AT_EPOCH   = 278
BSTAR          = .19841575E-2
MEAN_MOTION_DOT = .301412E-2
MEAN_MOTION_DDOT = 0

CCSDS_OMM_VERS = 2.0
CREATION_DATE  = 
ORIGINATOR     = 

OBJECT_NAME    = STARLINK-35509
OBJECT_ID      = 2025-243Y
CENTER_NAME    = EARTH
REF_FRAME      = TEME
TIME_SYSTEM    = UTC
MEAN_ELEMENT_THEORY = SGP/SGP4

EPOCH          = 2025-11-13T04:34:33.974400
MEAN_MOTION    = 15.74258235
ECCENTRICITY   = .00019551
INCLINATION    = 53.1581
RA_OF_ASC_NODE = 68.7802
ARG_OF_PERICENTER = 23.3998
MEAN_ANOMALY   = 336.7110

EPHEMERIS_TYPE = 0
CLASSIFICATION_TYPE = U
NORAD_CAT_ID   = 66199
ELEMENT_SET_NO = 999
REV_AT_EPOCH   = 278
BSTAR          = .20751679E-2
MEAN_MOTION_DOT = .315899E-2
MEAN_MOTION_DDOT = 0

CCSDS_OMM_VERS = 2.0
CREATION_DATE  = 
ORIGINATOR     = 

OBJECT_NAME    = STARLINK-35551
OBJECT_ID      = 2025-243Z
CENTER_NAME    = EARTH
REF_FRAME      = TEME
TIME_SYSTEM    = UTC
MEAN_ELEMENT_THEORY = SGP/SGP4

EPOCH          = 2025-11-13T04:35:32.154432
MEAN_MOTION    = 15.74238958
ECCENTRICITY   = .00010329
INCLINATION    = 53.1582
RA_OF_ASC_NODE = 68.7845
ARG_OF_PERICENTER = 59.4236
MEAN_ANOMALY   = 300.6886

EPHEMERIS_TYPE = 0
CLASSIFICATION_TYPE = U
NORAD_CAT_ID   = 66200
ELEMENT_SET_NO = 999
REV_AT_EPOCH   = 278
BSTAR          = .21404876E-2
MEAN_MOTION_DOT = .325993E-2
MEAN_MOTION_DDOT = 0

